SL-3 R/B                
1 10114U 77057B   22155.82918116  .00001542  00000+0  76900-4 0  9991
2 10114  97.4084 295.8174 0014801 104.8711 255.4163 15.18921708458389
SEASAT 1                
1 10967U 78064A   22155.87341206  .00000034  00000+0  50098-4 0  9996
2 10967 107.9937 129.8646 0002753 265.6661  94.4169 14.44012830308063
METEOR 1-29             
1 11251U 79005A   22155.43536511  .00006595  00000+0  14559-3 0  9995
2 11251  97.7285 125.2037 0015836  77.6960 282.6059 15.44123443918908
SL-14 R/B               
1 11267U 79011B   22155.89839808  .00000242  00000+0  22912-4 0  9990
2 11267  82.5236 316.8289 0015799 321.2949  38.7135 14.89184173324151
SL-8 R/B                
1 11574U 79089B   22155.61372695  .00000075  00000+0  31534-4 0  9996
2 11574  74.0690 111.2404 0017125 273.2534  86.6662 14.40896158238105
SL-14 R/B               
1 11672U 80005B   22156.08751054  .00000227  00000+0  21807-4 0  9998
2 11672  82.5142 167.0058 0018018  57.7526 302.5434 14.88209237293131
SL-8 R/B                
1 12139U 81003B   22156.18289123  .00006396  00000+0  28699-3 0  9998
2 12139  82.9496  67.4455 0444685  82.6005 282.5490 14.62046529111089
SL-3 R/B                
1 12465U 81046B   22155.91394605  .00002436  00000+0  12362-3 0  9990
2 12465  81.2421  98.5691 0033518  17.4245 342.8125 15.16048484228917
