<?xml version="1.0" encoding="UTF-8"?>
<ndm xmlns:xsi="http://www.w3.org/2001/XMLSchema-instance" xsi:noNamespaceSchemaLocation="https://sanaregistry.org/r/ndmxml_unqualified/ndmxml-2.0.0-master-2.0.xsd">
<omm id="CCSDS_OMM_VERS" version="2.0">
<header><CREATION_DATE/><ORIGINATOR/></header><body><segment><metadata><OBJECT_NAME>SL-3 R/B</OBJECT_NAME><OBJECT_ID>1977-057B</OBJECT_ID><CENTER_NAME>EARTH</CENTER_NAME><REF_FRAME>TEME</REF_FRAME><TIME_SYSTEM>UTC</TIME_SYSTEM><MEAN_ELEMENT_THEORY>SGP4</MEAN_ELEMENT_THEORY></metadata><data><meanElements><EPOCH>2022-06-04T19:54:01.252224</EPOCH><MEAN_MOTION>15.18921708</MEAN_MOTION><ECCENTRICITY>.0014801</ECCENTRICITY><INCLINATION>97.4084</INCLINATION><RA_OF_ASC_NODE>295.8174</RA_OF_ASC_NODE><ARG_OF_PERICENTER>104.8711</ARG_OF_PERICENTER><MEAN_ANOMALY>255.4163</MEAN_ANOMALY></meanElements><tleParameters><EPHEMERIS_TYPE>0</EPHEMERIS_TYPE><CLASSIFICATION_TYPE>U</CLASSIFICATION_TYPE><NORAD_CAT_ID>10114</NORAD_CAT_ID><ELEMENT_SET_NO>999</ELEMENT_SET_NO><REV_AT_EPOCH>45838</REV_AT_EPOCH><BSTAR>.769E-4</BSTAR><MEAN_MOTION_DOT>.1542E-4</MEAN_MOTION_DOT><MEAN_MOTION_DDOT>0</MEAN_MOTION_DDOT></tleParameters></data></segment></body></omm>
<omm id="CCSDS_OMM_VERS" version="2.0">
<header><CREATION_DATE/><ORIGINATOR/></header><body><segment><metadata><OBJECT_NAME>SEASAT 1</OBJECT_NAME><OBJECT_ID>1978-064A</OBJECT_ID><CENTER_NAME>EARTH</CENTER_NAME><REF_FRAME>TEME</REF_FRAME><TIME_SYSTEM>UTC</TIME_SYSTEM><MEAN_ELEMENT_THEORY>SGP4</MEAN_ELEMENT_THEORY></metadata><data><meanElements><EPOCH>2022-06-04T20:57:42.801984</EPOCH><MEAN_MOTION>14.44012830</MEAN_MOTION><ECCENTRICITY>.0002753</ECCENTRICITY><INCLINATION>107.9937</INCLINATION><RA_OF_ASC_NODE>129.8646</RA_OF_ASC_NODE><ARG_OF_PERICENTER>265.6661</ARG_OF_PERICENTER><MEAN_ANOMALY>94.4169</MEAN_ANOMALY></meanElements><tleParameters><EPHEMERIS_TYPE>0</EPHEMERIS_TYPE><CLASSIFICATION_TYPE>U</CLASSIFICATION_TYPE><NORAD_CAT_ID>10967</NORAD_CAT_ID><ELEMENT_SET_NO>999</ELEMENT_SET_NO><REV_AT_EPOCH>30806</REV_AT_EPOCH><BSTAR>.50098E-4</BSTAR><MEAN_MOTION_DOT>.34E-6</MEAN_MOTION_DOT><MEAN_MOTION_DDOT>0</MEAN_MOTION_DDOT></tleParameters></data></segment></body></omm>
<omm id="CCSDS_OMM_VERS" version="2.0">
<header><CREATION_DATE/><ORIGINATOR/></header><body><segment><metadata><OBJECT_NAME>METEOR 1-29</OBJECT_NAME><OBJECT_ID>1979-005A</OBJECT_ID><CENTER_NAME>EARTH</CENTER_NAME><REF_FRAME>TEME</REF_FRAME><TIME_SYSTEM>UTC</TIME_SYSTEM><MEAN_ELEMENT_THEORY>SGP4</MEAN_ELEMENT_THEORY></metadata><data><meanElements><EPOCH>2022-06-04T10:26:55.545504</EPOCH><MEAN_MOTION>15.44123443</MEAN_MOTION><ECCENTRICITY>.0015836</ECCENTRICITY><INCLINATION>97.7285</INCLINATION><RA_OF_ASC_NODE>125.2037</RA_OF_ASC_NODE><ARG_OF_PERICENTER>77.6960</ARG_OF_PERICENTER><MEAN_ANOMALY>282.6059</MEAN_ANOMALY></meanElements><tleParameters><EPHEMERIS_TYPE>0</EPHEMERIS_TYPE><CLASSIFICATION_TYPE>U</CLASSIFICATION_TYPE><NORAD_CAT_ID>11251</NORAD_CAT_ID><ELEMENT_SET_NO>999</ELEMENT_SET_NO><REV_AT_EPOCH>91890</REV_AT_EPOCH><BSTAR>.14559E-3</BSTAR><MEAN_MOTION_DOT>.6595E-4</MEAN_MOTION_DOT><MEAN_MOTION_DDOT>0</MEAN_MOTION_DDOT></tleParameters></data></segment></body></omm>
<omm id="CCSDS_OMM_VERS" version="2.0">
<header><CREATION_DATE/><ORIGINATOR/></header><body><segment><metadata><OBJECT_NAME>SL-14 R/B</OBJECT_NAME><OBJECT_ID>1979-011B</OBJECT_ID><CENTER_NAME>EARTH</CENTER_NAME><REF_FRAME>TEME</REF_FRAME><TIME_SYSTEM>UTC</TIME_SYSTEM><MEAN_ELEMENT_THEORY>SGP4</MEAN_ELEMENT_THEORY></metadata><data><meanElements><EPOCH>2022-06-04T21:33:41.594112</EPOCH><MEAN_MOTION>14.89184173</MEAN_MOTION><ECCENTRICITY>.0015799</ECCENTRICITY><INCLINATION>82.5236</INCLINATION><RA_OF_ASC_NODE>316.8289</RA_OF_ASC_NODE><ARG_OF_PERICENTER>321.2949</ARG_OF_PERICENTER><MEAN_ANOMALY>38.7135</MEAN_ANOMALY></meanElements><tleParameters><EPHEMERIS_TYPE>0</EPHEMERIS_TYPE><CLASSIFICATION_TYPE>U</CLASSIFICATION_TYPE><NORAD_CAT_ID>11267</NORAD_CAT_ID><ELEMENT_SET_NO>999</ELEMENT_SET_NO><REV_AT_EPOCH>32415</REV_AT_EPOCH><BSTAR>.22912E-4</BSTAR><MEAN_MOTION_DOT>.242E-5</MEAN_MOTION_DOT><MEAN_MOTION_DDOT>0</MEAN_MOTION_DDOT></tleParameters></data></segment></body></omm>
<omm id="CCSDS_OMM_VERS" version="2.0">
<header><CREATION_DATE/><ORIGINATOR/></header><body><segment><metadata><OBJECT_NAME>SL-8 R/B</OBJECT_NAME><OBJECT_ID>1979-089B</OBJECT_ID><CENTER_NAME>EARTH</CENTER_NAME><REF_FRAME>TEME</REF_FRAME><TIME_SYSTEM>UTC</TIME_SYSTEM><MEAN_ELEMENT_THEORY>SGP4</MEAN_ELEMENT_THEORY></metadata><data><meanElements><EPOCH>2022-06-04T14:43:46.008480</EPOCH><MEAN_MOTION>14.40896158</MEAN_MOTION><ECCENTRICITY>.0017125</ECCENTRICITY><INCLINATION>74.0690</INCLINATION><RA_OF_ASC_NODE>111.2404</RA_OF_ASC_NODE><ARG_OF_PERICENTER>273.2534</ARG_OF_PERICENTER><MEAN_ANOMALY>86.6662</MEAN_ANOMALY></meanElements><tleParameters><EPHEMERIS_TYPE>0</EPHEMERIS_TYPE><CLASSIFICATION_TYPE>U</CLASSIFICATION_TYPE><NORAD_CAT_ID>11574</NORAD_CAT_ID><ELEMENT_SET_NO>999</ELEMENT_SET_NO><REV_AT_EPOCH>23810</REV_AT_EPOCH><BSTAR>.31534E-4</BSTAR><MEAN_MOTION_DOT>.75E-6</MEAN_MOTION_DOT><MEAN_MOTION_DDOT>0</MEAN_MOTION_DDOT></tleParameters></data></segment></body></omm>
<omm id="CCSDS_OMM_VERS" version="2.0">
<header><CREATION_DATE/><ORIGINATOR/></header><body><segment><metadata><OBJECT_NAME>SL-14 R/B</OBJECT_NAME><OBJECT_ID>1980-005B</OBJECT_ID><CENTER_NAME>EARTH</CENTER_NAME><REF_FRAME>TEME</REF_FRAME><TIME_SYSTEM>UTC</TIME_SYSTEM><MEAN_ELEMENT_THEORY>SGP4</MEAN_ELEMENT_THEORY></metadata><data><meanElements><EPOCH>2022-06-05T02:06:00.910656</EPOCH><MEAN_MOTION>14.88209237</MEAN_MOTION><ECCENTRICITY>.0018018</ECCENTRICITY><INCLINATION>82.5142</INCLINATION><RA_OF_ASC_NODE>167.0058</RA_OF_ASC_NODE><ARG_OF_PERICENTER>57.7526</ARG_OF_PERICENTER><MEAN_ANOMALY>302.5434</MEAN_ANOMALY></meanElements><tleParameters><EPHEMERIS_TYPE>0</EPHEMERIS_TYPE><CLASSIFICATION_TYPE>U</CLASSIFICATION_TYPE><NORAD_CAT_ID>11672</NORAD_CAT_ID><ELEMENT_SET_NO>999</ELEMENT_SET_NO><REV_AT_EPOCH>29313</REV_AT_EPOCH><BSTAR>.21807E-4</BSTAR><MEAN_MOTION_DOT>.227E-5</MEAN_MOTION_DOT><MEAN_MOTION_DDOT>0</MEAN_MOTION_DDOT></tleParameters></data></segment></body></omm>
<omm id="CCSDS_OMM_VERS" version="2.0">
<header><CREATION_DATE/><ORIGINATOR/></header><body><segment><metadata><OBJECT_NAME>SL-8 R/B</OBJECT_NAME><OBJECT_ID>1981-003B</OBJECT_ID><CENTER_NAME>EARTH</CENTER_NAME><REF_FRAME>TEME</REF_FRAME><TIME_SYSTEM>UTC</TIME_SYSTEM><MEAN_ELEMENT_THEORY>SGP4</MEAN_ELEMENT_THEORY></metadata><data><meanElements><EPOCH>2022-06-05T04:23:21.802272</EPOCH><MEAN_MOTION>14.62046529</MEAN_MOTION><ECCENTRICITY>.0444685</ECCENTRICITY><INCLINATION>82.9496</INCLINATION><RA_OF_ASC_NODE>67.4455</RA_OF_ASC_NODE><ARG_OF_PERICENTER>82.6005</ARG_OF_PERICENTER><MEAN_ANOMALY>282.5490</MEAN_ANOMALY></meanElements><tleParameters><EPHEMERIS_TYPE>0</EPHEMERIS_TYPE><CLASSIFICATION_TYPE>U</CLASSIFICATION_TYPE><NORAD_CAT_ID>12139</NORAD_CAT_ID><ELEMENT_SET_NO>999</ELEMENT_SET_NO><REV_AT_EPOCH>11108</REV_AT_EPOCH><BSTAR>.28699E-3</BSTAR><MEAN_MOTION_DOT>.6396E-4</MEAN_MOTION_DOT><MEAN_MOTION_DDOT>0</MEAN_MOTION_DDOT></tleParameters></data></segment></body></omm>
<omm id="CCSDS_OMM_VERS" version="2.0">
<header><CREATION_DATE/><ORIGINATOR/></header><body><segment><metadata><OBJECT_NAME>SL-3 R/B</OBJECT_NAME><OBJECT_ID>1981-046B</OBJECT_ID><CENTER_NAME>EARTH</CENTER_NAME><REF_FRAME>TEME</REF_FRAME><TIME_SYSTEM>UTC</TIME_SYSTEM><MEAN_ELEMENT_THEORY>SGP4</MEAN_ELEMENT_THEORY></metadata><data><meanElements><EPOCH>2022-06-04T21:56:04.938720</EPOCH><MEAN_MOTION>15.16048484</MEAN_MOTION><ECCENTRICITY>.0033518</ECCENTRICITY><INCLINATION>81.2421</INCLINATION><RA_OF_ASC_NODE>98.5691</RA_OF_ASC_NODE><ARG_OF_PERICENTER>17.4245</ARG_OF_PERICENTER><MEAN_ANOMALY>342.8125</MEAN_ANOMALY></meanElements><tleParameters><EPHEMERIS_TYPE>0</EPHEMERIS_TYPE><CLASSIFICATION_TYPE>U</CLASSIFICATION_TYPE><NORAD_CAT_ID>12465</NORAD_CAT_ID><ELEMENT_SET_NO>999</ELEMENT_SET_NO><REV_AT_EPOCH>22891</REV_AT_EPOCH><BSTAR>.12362E-3</BSTAR><MEAN_MOTION_DOT>.2436E-4</MEAN_MOTION_DOT><MEAN_MOTION_DDOT>0</MEAN_MOTION_DDOT></tleParameters></data></segment></body></omm>

</ndm>
